METOP-C                 
1 43689U 18087A   26063.75340189  .00000182  00000+0  10321-3 0  9998
2 43689  98.6775 125.2100 0002186 106.7955 253.3463 14.21495205379991
GEO-KOMPSAT-2A          
1 43823U 18100A   26063.26502859  .00000000  00000+0  00000+0 0  9992
2 43823   0.0084  82.1864 0001750 326.5345 336.9688  1.00267019 26573
METEOR-M2 2             
1 44387U 19038A   26063.85771940  .00000205  00000+0  10849-3 0  9996
2 44387  98.9075  49.6421 0001142  12.7048 347.4159 14.24331898346449
ARKTIKA-M 1             
1 47719U 21016A   26061.82287547 -.00000108  00000+0  00000+0 0  9994
2 47719  63.2036  72.8571 7242814 269.4536  15.2019  2.00620868 36653
FENGYUN 3E              
1 49008U 21062A   26063.83979921  .00000166  00000+0  98773-4 0  9997
2 49008  98.7506  68.4071 0002412  51.7996 308.3397 14.19893668241779
GOES 18                 
1 51850U 22021A   26063.49975577  .00000085  00000+0  00000+0 0  9997
2 51850   0.0304  75.7612 0000657 323.5131 165.8689  1.00272095  5545
NOAA 21 (JPSS-2)        
1 54234U 22150A   26063.78822145  .00000118  00000+0  76963-4 0  9996
2 54234  98.7550   4.1104 0002546 115.2662 244.8779 14.19550589171731
METEOSAT-12 (MTG-I1)    
1 54743U 22170C   26063.38239013 -.00000019  00000+0  00000+0 0  9990
2 54743   0.7009  21.3486 0002149 285.0111 353.1353  1.00269482 11927
TIANMU-1 03             
1 55973U 23039A   26063.82459192  .00023915  00000+0  52594-3 0  9990
2 55973  97.5169 233.9797 0003996 115.4433 244.7228 15.43983366164712
TIANMU-1 04             
1 55974U 23039B   26063.84933848  .00022153  00000+0  48076-3 0  9991
2 55974  97.5102 233.1666 0004639 111.4791 248.6952 15.44390280164721
TIANMU-1 05             
1 55975U 23039C   26063.80099142  .00024004  00000+0  52896-3 0  9990
2 55975  97.5147 233.6083 0003780 132.9165 227.2400 15.43923582164691
TIANMU-1 06             
1 55976U 23039D   26063.84923472  .00022439  00000+0  48647-3 0  9996
2 55976  97.5159 234.1940 0004062 128.3224 231.8390 15.44420079164729
FENGYUN 3G              
1 56232U 23055A   26063.74802034  .00043858  00000+0  66053-3 0  9998
2 56232  49.9932 164.5158 0010725 350.9808   9.0965 15.54256538163771
METEOR-M2 3             
1 57166U 23091A   26063.82893869  .00000020  00000+0  27681-4 0  9999
2 57166  98.6224 120.8802 0005059 110.3486 249.8237 14.24037071139660
TIANMU-1 07             
1 57399U 23101A   26063.87310073  .00009463  00000+0  33750-3 0  9998
2 57399  97.2732 116.9293 0004534 147.1221 213.0302 15.29090075145706
TIANMU-1 08             
1 57400U 23101B   26063.84302017  .00000526  00000+0  21089-4 0  9991
2 57400  97.2726 116.6786 0006482 139.2118 220.9609 15.29253644145695
TIANMU-1 09             
1 57401U 23101C   26063.82437980  .00000798  00000+0  30791-4 0  9999
2 57401  97.2680 116.1385 0005034 150.3958 209.7568 15.29119058145692
