[{"OBJECT_NAME":"METOP-C","OBJECT_ID":"2018-087A","EPOCH":"2026-03-04T18:04:53.923296","MEAN_MOTION":14.21495205,"ECCENTRICITY":0.0002186,"INCLINATION":98.6775,"RA_OF_ASC_NODE":125.21,"ARG_OF_PERICENTER":106.7955,"MEAN_ANOMALY":253.3463,"EPHEMERIS_TYPE":0,"CLASSIFICATION_TYPE":"U","NORAD_CAT_ID":43689,"ELEMENT_SET_NO":999,"REV_AT_EPOCH":37999,"BSTAR":0.00010321,"MEAN_MOTION_DOT":1.82e-6,"MEAN_MOTION_DDOT":0},{"OBJECT_NAME":"GEO-KOMPSAT-2A","OBJECT_ID":"2018-100A","EPOCH":"2026-03-04T06:21:38.470176","MEAN_MOTION":1.00267019,"ECCENTRICITY":0.00017508,"INCLINATION":0.0084,"RA_OF_ASC_NODE":82.1864,"ARG_OF_PERICENTER":326.5345,"MEAN_ANOMALY":336.9688,"EPHEMERIS_TYPE":0,"CLASSIFICATION_TYPE":"U","NORAD_CAT_ID":43823,"ELEMENT_SET_NO":999,"REV_AT_EPOCH":2657,"BSTAR":0,"MEAN_MOTION_DOT":0,"MEAN_MOTION_DDOT":0},{"OBJECT_NAME":"METEOR-M2 2","OBJECT_ID":"2019-038A","EPOCH":"2026-03-04T20:35:06.956160","MEAN_MOTION":14.24331898,"ECCENTRICITY":0.0001142,"INCLINATION":98.9075,"RA_OF_ASC_NODE":49.6421,"ARG_OF_PERICENTER":12.7048,"MEAN_ANOMALY":347.4159,"EPHEMERIS_TYPE":0,"CLASSIFICATION_TYPE":"U","NORAD_CAT_ID":44387,"ELEMENT_SET_NO":999,"REV_AT_EPOCH":34644,"BSTAR":0.00010849,"MEAN_MOTION_DOT":2.05e-6,"MEAN_MOTION_DDOT":0},{"OBJECT_NAME":"ARKTIKA-M 1","OBJECT_ID":"2021-016A","EPOCH":"2026-03-02T19:44:56.440608","MEAN_MOTION":2.00620868,"ECCENTRICITY":0.72428147,"INCLINATION":63.2036,"RA_OF_ASC_NODE":72.8571,"ARG_OF_PERICENTER":269.4536,"MEAN_ANOMALY":15.2019,"EPHEMERIS_TYPE":0,"CLASSIFICATION_TYPE":"U","NORAD_CAT_ID":47719,"ELEMENT_SET_NO":999,"REV_AT_EPOCH":3665,"BSTAR":0,"MEAN_MOTION_DOT":-1.08e-6,"MEAN_MOTION_DDOT":0},{"OBJECT_NAME":"FENGYUN 3E","OBJECT_ID":"2021-062A","EPOCH":"2026-03-04T20:09:18.651744","MEAN_MOTION":14.19893668,"ECCENTRICITY":0.0002412,"INCLINATION":98.7506,"RA_OF_ASC_NODE":68.4071,"ARG_OF_PERICENTER":51.7996,"MEAN_ANOMALY":308.3397,"EPHEMERIS_TYPE":0,"CLASSIFICATION_TYPE":"U","NORAD_CAT_ID":49008,"ELEMENT_SET_NO":999,"REV_AT_EPOCH":24177,"BSTAR":9.8773e-5,"MEAN_MOTION_DOT":1.66e-6,"MEAN_MOTION_DDOT":0},{"OBJECT_NAME":"GOES 18","OBJECT_ID":"2022-021A","EPOCH":"2026-03-04T11:59:38.898528","MEAN_MOTION":1.00272095,"ECCENTRICITY":6.57e-5,"INCLINATION":0.0304,"RA_OF_ASC_NODE":75.7612,"ARG_OF_PERICENTER":323.5131,"MEAN_ANOMALY":165.8689,"EPHEMERIS_TYPE":0,"CLASSIFICATION_TYPE":"U","NORAD_CAT_ID":51850,"ELEMENT_SET_NO":999,"REV_AT_EPOCH":554,"BSTAR":0,"MEAN_MOTION_DOT":8.5e-7,"MEAN_MOTION_DDOT":0},{"OBJECT_NAME":"NOAA 21 (JPSS-2)","OBJECT_ID":"2022-150A","EPOCH":"2026-03-04T18:55:02.333280","MEAN_MOTION":14.19550589,"ECCENTRICITY":0.0002546,"INCLINATION":98.755,"RA_OF_ASC_NODE":4.1104,"ARG_OF_PERICENTER":115.2662,"MEAN_ANOMALY":244.8779,"EPHEMERIS_TYPE":0,"CLASSIFICATION_TYPE":"U","NORAD_CAT_ID":54234,"ELEMENT_SET_NO":999,"REV_AT_EPOCH":17173,"BSTAR":7.6963e-5,"MEAN_MOTION_DOT":1.18e-6,"MEAN_MOTION_DDOT":0},{"OBJECT_NAME":"METEOSAT-12 (MTG-I1)","OBJECT_ID":"2022-170C","EPOCH":"2026-03-04T09:10:38.507232","MEAN_MOTION":1.00269482,"ECCENTRICITY":0.00021498,"INCLINATION":0.7009,"RA_OF_ASC_NODE":21.3486,"ARG_OF_PERICENTER":285.0111,"MEAN_ANOMALY":353.1353,"EPHEMERIS_TYPE":0,"CLASSIFICATION_TYPE":"U","NORAD_CAT_ID":54743,"ELEMENT_SET_NO":999,"REV_AT_EPOCH":1192,"BSTAR":0,"MEAN_MOTION_DOT":-1.9e-7,"MEAN_MOTION_DDOT":0},{"OBJECT_NAME":"TIANMU-1 03","OBJECT_ID":"2023-039A","EPOCH":"2026-03-04T19:47:24.741888","MEAN_MOTION":15.43983366,"ECCENTRICITY":0.0003996,"INCLINATION":97.5169,"RA_OF_ASC_NODE":233.9797,"ARG_OF_PERICENTER":115.4433,"MEAN_ANOMALY":244.7228,"EPHEMERIS_TYPE":0,"CLASSIFICATION_TYPE":"U","NORAD_CAT_ID":55973,"ELEMENT_SET_NO":999,"REV_AT_EPOCH":16471,"BSTAR":0.00052594,"MEAN_MOTION_DOT":0.00023915,"MEAN_MOTION_DDOT":0},{"OBJECT_NAME":"TIANMU-1 04","OBJECT_ID":"2023-039B","EPOCH":"2026-03-04T20:23:02.844672","MEAN_MOTION":15.4439028,"ECCENTRICITY":0.0004639,"INCLINATION":97.5102,"RA_OF_ASC_NODE":233.1666,"ARG_OF_PERICENTER":111.4791,"MEAN_ANOMALY":248.6952,"EPHEMERIS_TYPE":0,"CLASSIFICATION_TYPE":"U","NORAD_CAT_ID":55974,"ELEMENT_SET_NO":999,"REV_AT_EPOCH":16472,"BSTAR":0.00048076,"MEAN_MOTION_DOT":0.00022153,"MEAN_MOTION_DDOT":0},{"OBJECT_NAME":"TIANMU-1 05","OBJECT_ID":"2023-039C","EPOCH":"2026-03-04T19:13:25.658688","MEAN_MOTION":15.43923582,"ECCENTRICITY":0.000378,"INCLINATION":97.5147,"RA_OF_ASC_NODE":233.6083,"ARG_OF_PERICENTER":132.9165,"MEAN_ANOMALY":227.24,"EPHEMERIS_TYPE":0,"CLASSIFICATION_TYPE":"U","NORAD_CAT_ID":55975,"ELEMENT_SET_NO":999,"REV_AT_EPOCH":16469,"BSTAR":0.00052896,"MEAN_MOTION_DOT":0.00024004,"MEAN_MOTION_DDOT":0},{"OBJECT_NAME":"TIANMU-1 06","OBJECT_ID":"2023-039D","EPOCH":"2026-03-04T20:22:53.879808","MEAN_MOTION":15.44420079,"ECCENTRICITY":0.0004062,"INCLINATION":97.5159,"RA_OF_ASC_NODE":234.194,"ARG_OF_PERICENTER":128.3224,"MEAN_ANOMALY":231.839,"EPHEMERIS_TYPE":0,"CLASSIFICATION_TYPE":"U","NORAD_CAT_ID":55976,"ELEMENT_SET_NO":999,"REV_AT_EPOCH":16472,"BSTAR":0.00048647,"MEAN_MOTION_DOT":0.00022439,"MEAN_MOTION_DDOT":0},{"OBJECT_NAME":"FENGYUN 3G","OBJECT_ID":"2023-055A","EPOCH":"2026-03-04T17:57:08.957376","MEAN_MOTION":15.54256538,"ECCENTRICITY":0.0010725,"INCLINATION":49.9932,"RA_OF_ASC_NODE":164.5158,"ARG_OF_PERICENTER":350.9808,"MEAN_ANOMALY":9.0965,"EPHEMERIS_TYPE":0,"CLASSIFICATION_TYPE":"U","NORAD_CAT_ID":56232,"ELEMENT_SET_NO":999,"REV_AT_EPOCH":16377,"BSTAR":0.00066053,"MEAN_MOTION_DOT":0.00043858,"MEAN_MOTION_DDOT":0},{"OBJECT_NAME":"METEOR-M2 3","OBJECT_ID":"2023-091A","EPOCH":"2026-03-04T19:53:40.302816","MEAN_MOTION":14.24037071,"ECCENTRICITY":0.0005059,"INCLINATION":98.6224,"RA_OF_ASC_NODE":120.8802,"ARG_OF_PERICENTER":110.3486,"MEAN_ANOMALY":249.8237,"EPHEMERIS_TYPE":0,"CLASSIFICATION_TYPE":"U","NORAD_CAT_ID":57166,"ELEMENT_SET_NO":999,"REV_AT_EPOCH":13966,"BSTAR":2.7681e-5,"MEAN_MOTION_DOT":2.0e-7,"MEAN_MOTION_DDOT":0},{"OBJECT_NAME":"TIANMU-1 07","OBJECT_ID":"2023-101A","EPOCH":"2026-03-04T20:57:15.903072","MEAN_MOTION":15.29090075,"ECCENTRICITY":0.0004534,"INCLINATION":97.2732,"RA_OF_ASC_NODE":116.9293,"ARG_OF_PERICENTER":147.1221,"MEAN_ANOMALY":213.0302,"EPHEMERIS_TYPE":0,"CLASSIFICATION_TYPE":"U","NORAD_CAT_ID":57399,"ELEMENT_SET_NO":999,"REV_AT_EPOCH":14570,"BSTAR":0.0003375,"MEAN_MOTION_DOT":9.463e-5,"MEAN_MOTION_DDOT":0},{"OBJECT_NAME":"TIANMU-1 08","OBJECT_ID":"2023-101B","EPOCH":"2026-03-04T20:13:56.942688","MEAN_MOTION":15.29253644,"ECCENTRICITY":0.0006482,"INCLINATION":97.2726,"RA_OF_ASC_NODE":116.6786,"ARG_OF_PERICENTER":139.2118,"MEAN_ANOMALY":220.9609,"EPHEMERIS_TYPE":0,"CLASSIFICATION_TYPE":"U","NORAD_CAT_ID":57400,"ELEMENT_SET_NO":999,"REV_AT_EPOCH":14569,"BSTAR":2.1089e-5,"MEAN_MOTION_DOT":5.26e-6,"MEAN_MOTION_DDOT":0},{"OBJECT_NAME":"TIANMU-1 09","OBJECT_ID":"2023-101C","EPOCH":"2026-03-04T19:47:06.414720","MEAN_MOTION":15.29119058,"ECCENTRICITY":0.0005034,"INCLINATION":97.268,"RA_OF_ASC_NODE":116.1385,"ARG_OF_PERICENTER":150.3958,"MEAN_ANOMALY":209.7568,"EPHEMERIS_TYPE":0,"CLASSIFICATION_TYPE":"U","NORAD_CAT_ID":57401,"ELEMENT_SET_NO":999,"REV_AT_EPOCH":14569,"BSTAR":3.0791e-5,"MEAN_MOTION_DOT":7.98e-6,"MEAN_MOTION_DDOT":0}]
